{"type": "FeatureCollection", "features": [{"type": "Feature", "properties": {"block_id": "C03_07", "center_lon": 121.39609062619657, "center_lat": 30.867293992623473, "size_m": 5000, "status": "candidate_unstratified", "centroid_lon": 121.39609062619657, "centroid_lat": 30.867293992623473, "area_km2": 25.0, "tree_fraction": 0.07217261904761904, "grass_fraction": 0.15219907407407407, "crop_fraction": 0.6502976190476191, "built_fraction": 0.10867228835978836, "water_fraction": 0.009300595238095238, "vegetation_fraction": 0.2243716931216931, "eligible_tree_components": 35, "eligible_grass_components": 71, "urbanization_stratum": "low"}, "geometry": {"type": "Polygon", "coordinates": [[[121.36980918558346, 30.844836213248698], [121.42237206680967, 30.844836213248698], [121.42237206680967, 30.88975177199825], [121.36980918558346, 30.88975177199825], [121.36980918558346, 30.844836213248698]]]}}, {"type": "Feature", "properties": {"block_id": "C03_10", "center_lon": 121.55377926987515, "center_lat": 30.867293992623473, "size_m": 5000, "status": "candidate_unstratified", "centroid_lon": 121.55377926987515, "centroid_lat": 30.867293992623473, "area_km2": 25.0, "tree_fraction": 0.11334325396825397, "grass_fraction": 0.1189236111111111, "crop_fraction": 0.3957919973544973, "built_fraction": 0.3480076058201058, "water_fraction": 0.010499338624338625, "vegetation_fraction": 0.23226686507936506, "eligible_tree_components": 53, "eligible_grass_components": 53, "urbanization_stratum": "medium"}, "geometry": {"type": "Polygon", "coordinates": [[[121.52749782926205, 30.844836213248698], [121.58006071048825, 30.844836213248698], [121.58006071048825, 30.88975177199825], [121.52749782926205, 30.88975177199825], [121.52749782926205, 30.844836213248698]]]}}, {"type": "Feature", "properties": {"block_id": "C06_14", "center_lon": 121.76403079477993, "center_lat": 31.002040668872127, "size_m": 5000, "status": "candidate_unstratified", "centroid_lon": 121.76403079477993, "centroid_lat": 31.002040668872127, "area_km2": 25.0, "tree_fraction": 0.06886574074074074, "grass_fraction": 0.10085978835978836, "crop_fraction": 0.43778935185185186, "built_fraction": 0.35474537037037035, "water_fraction": 0.032159391534391533, "vegetation_fraction": 0.1697255291005291, "eligible_tree_components": 46, "eligible_grass_components": 74, "urbanization_stratum": "medium"}, "geometry": {"type": "Polygon", "coordinates": [[[121.73774935416682, 30.97958288949735], [121.79031223539303, 30.97958288949735], [121.79031223539303, 31.024498448246902], [121.73774935416682, 31.024498448246902], [121.73774935416682, 30.97958288949735]]]}}, {"type": "Feature", "properties": {"block_id": "C07_07", "center_lon": 121.39609062619657, "center_lat": 31.046956227621678, "size_m": 5000, "status": "candidate_unstratified", "centroid_lon": 121.39609062619657, "centroid_lat": 31.046956227621678, "area_km2": 25.0, "tree_fraction": 0.15426587301587302, "grass_fraction": 0.04749503968253968, "crop_fraction": 0.08825231481481481, "built_fraction": 0.6553406084656085, "water_fraction": 0.020833333333333332, "vegetation_fraction": 0.2017609126984127, "eligible_tree_components": 62, "eligible_grass_components": 28, "urbanization_stratum": "high"}, "geometry": {"type": "Polygon", "coordinates": [[[121.36980918558346, 31.024498448246902], [121.42237206680967, 31.024498448246902], [121.42237206680967, 31.069414006996453], [121.36980918558346, 31.069414006996453], [121.36980918558346, 31.024498448246902]]]}}, {"type": "Feature", "properties": {"block_id": "C07_09", "center_lon": 121.50121638864896, "center_lat": 31.046956227621678, "size_m": 5000, "status": "candidate_unstratified", "centroid_lon": 121.50121638864896, "centroid_lat": 31.046956227621678, "area_km2": 25.0, "tree_fraction": 0.2640955687830688, "grass_fraction": 0.06436011904761904, "crop_fraction": 0.183573082010582, "built_fraction": 0.3653687169312169, "water_fraction": 0.09809027777777778, "vegetation_fraction": 0.3284556878306878, "eligible_tree_components": 49, "eligible_grass_components": 38, "urbanization_stratum": "medium"}, "geometry": {"type": "Polygon", "coordinates": [[[121.47493494803585, 31.024498448246902], [121.52749782926206, 31.024498448246902], [121.52749782926206, 31.069414006996453], [121.47493494803585, 31.069414006996453], [121.47493494803585, 31.024498448246902]]]}}, {"type": "Feature", "properties": {"block_id": "C09_04", "center_lon": 121.23840198251798, "center_lat": 31.13678734512078, "size_m": 5000, "status": "candidate_unstratified", "centroid_lon": 121.23840198251798, "centroid_lat": 31.13678734512078, "area_km2": 25.0, "tree_fraction": 0.2509507275132275, "grass_fraction": 0.06436011904761904, "crop_fraction": 0.2553323412698413, "built_fraction": 0.36235119047619047, "water_fraction": 0.039393187830687834, "vegetation_fraction": 0.3153108465608465, "eligible_tree_components": 70, "eligible_grass_components": 40, "urbanization_stratum": "medium"}, "geometry": {"type": "Polygon", "coordinates": [[[121.21212054190488, 31.114329565746004], [121.26468342313109, 31.114329565746004], [121.26468342313109, 31.159245124495556], [121.21212054190488, 31.159245124495556], [121.21212054190488, 31.114329565746004]]]}}, {"type": "Feature", "properties": {"block_id": "C09_07", "center_lon": 121.39609062619657, "center_lat": 31.13678734512078, "size_m": 5000, "status": "candidate_unstratified", "centroid_lon": 121.39609062619657, "centroid_lat": 31.13678734512078, "area_km2": 25.0, "tree_fraction": 0.20506779100529102, "grass_fraction": 0.025049603174603176, "crop_fraction": 0.041666666666666664, "built_fraction": 0.6958498677248677, "water_fraction": 0.016162367724867725, "vegetation_fraction": 0.23011739417989419, "eligible_tree_components": 82, "eligible_grass_components": 16, "urbanization_stratum": "high"}, "geometry": {"type": "Polygon", "coordinates": [[[121.36980918558346, 31.114329565746004], [121.42237206680967, 31.114329565746004], [121.42237206680967, 31.159245124495556], [121.36980918558346, 31.159245124495556], [121.36980918558346, 31.114329565746004]]]}}, {"type": "Feature", "properties": {"block_id": "C09_10", "center_lon": 121.55377926987515, "center_lat": 31.13678734512078, "size_m": 5000, "status": "candidate_unstratified", "centroid_lon": 121.55377926987515, "centroid_lat": 31.13678734512078, "area_km2": 25.0, "tree_fraction": 0.17642195767195767, "grass_fraction": 0.04704034391534392, "crop_fraction": 0.0708912037037037, "built_fraction": 0.654431216931217, "water_fraction": 0.007027116402116402, "vegetation_fraction": 0.2234623015873016, "eligible_tree_components": 49, "eligible_grass_components": 23, "urbanization_stratum": "high"}, "geometry": {"type": "Polygon", "coordinates": [[[121.52749782926205, 31.114329565746004], [121.58006071048825, 31.114329565746004], [121.58006071048825, 31.159245124495556], [121.52749782926205, 31.159245124495556], [121.52749782926205, 31.114329565746004]]]}}, {"type": "Feature", "properties": {"block_id": "C10_05", "center_lon": 121.29096486374418, "center_lat": 31.18170290387033, "size_m": 5000, "status": "candidate_unstratified", "centroid_lon": 121.29096486374418, "centroid_lat": 31.18170290387033, "area_km2": 25.0, "tree_fraction": 0.1859292328042328, "grass_fraction": 0.038938492063492064, "crop_fraction": 0.0582010582010582, "built_fraction": 0.6640625, "water_fraction": 0.008928571428571428, "vegetation_fraction": 0.22486772486772486, "eligible_tree_components": 70, "eligible_grass_components": 29, "urbanization_stratum": "high"}, "geometry": {"type": "Polygon", "coordinates": [[[121.26468342313107, 31.159245124495556], [121.31724630435728, 31.159245124495556], [121.31724630435728, 31.204160683245107], [121.26468342313107, 31.204160683245107], [121.26468342313107, 31.159245124495556]]]}}, {"type": "Feature", "properties": {"block_id": "C11_03", "center_lon": 121.18583910129179, "center_lat": 31.226618462619882, "size_m": 5000, "status": "candidate_unstratified", "centroid_lon": 121.18583910129179, "centroid_lat": 31.226618462619882, "area_km2": 25.0, "tree_fraction": 0.12140376984126984, "grass_fraction": 0.14050099206349206, "crop_fraction": 0.38268849206349204, "built_fraction": 0.3385830026455027, "water_fraction": 0.002438822751322751, "vegetation_fraction": 0.2619047619047619, "eligible_tree_components": 61, "eligible_grass_components": 60, "urbanization_stratum": "medium"}, "geometry": {"type": "Polygon", "coordinates": [[[121.15955766067869, 31.204160683245107], [121.2121205419049, 31.204160683245107], [121.2121205419049, 31.249076241994658], [121.15955766067869, 31.249076241994658], [121.15955766067869, 31.204160683245107]]]}}, {"type": "Feature", "properties": {"block_id": "C12_06", "center_lon": 121.34352774497037, "center_lat": 31.271534021369433, "size_m": 5000, "status": "candidate_unstratified", "centroid_lon": 121.34352774497037, "centroid_lat": 31.271534021369433, "area_km2": 25.0, "tree_fraction": 0.21614583333333334, "grass_fraction": 0.019303902116402115, "crop_fraction": 0.06634424603174603, "built_fraction": 0.6674520502645502, "water_fraction": 0.008597883597883597, "vegetation_fraction": 0.23544973544973546, "eligible_tree_components": 68, "eligible_grass_components": 11, "urbanization_stratum": "high"}, "geometry": {"type": "Polygon", "coordinates": [[[121.31724630435727, 31.249076241994658], [121.36980918558348, 31.249076241994658], [121.36980918558348, 31.29399180074421], [121.31724630435727, 31.29399180074421], [121.31724630435727, 31.249076241994658]]]}}, {"type": "Feature", "properties": {"block_id": "C18_16", "center_lon": 121.86915655723232, "center_lat": 31.54102737386674, "size_m": 5000, "status": "candidate_unstratified", "centroid_lon": 121.86915655723232, "centroid_lat": 31.54102737386674, "area_km2": 25.0, "tree_fraction": 0.16166501322751323, "grass_fraction": 0.09246858465608465, "crop_fraction": 0.572255291005291, "built_fraction": 0.09341931216931217, "water_fraction": 0.07002314814814815, "vegetation_fraction": 0.2541335978835979, "eligible_tree_components": 24, "eligible_grass_components": 50, "urbanization_stratum": "low"}, "geometry": {"type": "Polygon", "coordinates": [[[121.84287511661921, 31.518569594491964], [121.89543799784542, 31.518569594491964], [121.89543799784542, 31.563485153241515], [121.84287511661921, 31.563485153241515], [121.84287511661921, 31.518569594491964]]]}}, {"type": "Feature", "properties": {"block_id": "C22_05", "center_lon": 121.29096486374418, "center_lat": 31.720689608864944, "size_m": 5000, "status": "candidate_unstratified", "centroid_lon": 121.29096486374418, "centroid_lat": 31.720689608864944, "area_km2": 25.0, "tree_fraction": 0.3237020502645503, "grass_fraction": 0.026909722222222224, "crop_fraction": 0.46585648148148145, "built_fraction": 0.11069775132275132, "water_fraction": 0.07080853174603174, "vegetation_fraction": 0.3506117724867725, "eligible_tree_components": 39, "eligible_grass_components": 8, "urbanization_stratum": "low"}, "geometry": {"type": "Polygon", "coordinates": [[[121.26468342313107, 31.69823182949017], [121.31724630435728, 31.69823182949017], [121.31724630435728, 31.74314738823972], [121.26468342313107, 31.74314738823972], [121.26468342313107, 31.69823182949017]]]}}, {"type": "Feature", "properties": {"block_id": "C22_07", "center_lon": 121.39609062619657, "center_lat": 31.720689608864944, "size_m": 5000, "status": "candidate_unstratified", "centroid_lon": 121.39609062619657, "centroid_lat": 31.720689608864944, "area_km2": 25.0, "tree_fraction": 0.3245287698412698, "grass_fraction": 0.03042328042328042, "crop_fraction": 0.5394758597883598, "built_fraction": 0.09242724867724868, "water_fraction": 0.008845899470899471, "vegetation_fraction": 0.35495205026455023, "eligible_tree_components": 52, "eligible_grass_components": 16, "urbanization_stratum": "low"}, "geometry": {"type": "Polygon", "coordinates": [[[121.36980918558346, 31.69823182949017], [121.42237206680967, 31.69823182949017], [121.42237206680967, 31.74314738823972], [121.36980918558346, 31.74314738823972], [121.36980918558346, 31.69823182949017]]]}}, {"type": "Feature", "properties": {"block_id": "C23_06", "center_lon": 121.34352774497037, "center_lat": 31.765605167614495, "size_m": 5000, "status": "candidate_unstratified", "centroid_lon": 121.34352774497037, "centroid_lat": 31.765605167614495, "area_km2": 25.0, "tree_fraction": 0.28935185185185186, "grass_fraction": 0.01773313492063492, "crop_fraction": 0.5971395502645502, "built_fraction": 0.09069113756613757, "water_fraction": 0.00425760582010582, "vegetation_fraction": 0.3070849867724868, "eligible_tree_components": 31, "eligible_grass_components": 8, "urbanization_stratum": "low"}, "geometry": {"type": "Polygon", "coordinates": [[[121.31724630435727, 31.74314738823972], [121.36980918558348, 31.74314738823972], [121.36980918558348, 31.78806294698927], [121.31724630435727, 31.78806294698927], [121.31724630435727, 31.74314738823972]]]}}]}